STARLINK-30935          
1 58455U 23183U   25209.38751553  .00000521  00000+0  53658-4 0  9997
2 58455  43.0024 182.0913 0001179 284.2870  75.7841 15.02532257 92998
STARLINK-30960          
1 58456U 23183V   25208.85030889 -.00005615  00000+0 -19470-3 0  9995
2 58456  43.0002 150.9518 0001343 279.2522  80.8177 15.27574384 93298
STARLINK-30958          
1 58457U 23183W   25209.30549610  .00000530  00000+0  54310-4 0  9996
2 58457  43.0024 182.3420 0001123 286.2904  73.7815 15.02537776 92861
STARLINK-30962          
1 58458U 23183X   25209.21460232  .00000035  00000+0  17668-4 0  9994
2 58458  43.0025 182.5214 0001221 275.1520  84.9183 15.02534300 92767
STARLINK-30977          
1 58459U 23183Y   25209.31770632  .00000838  00000+0  77106-4 0  9998
2 58459  43.0021 182.4285 0000996 278.9870  81.0860 15.02535640 92777
STARLINK-30947          
1 58473U 23186A   25208.70083423  .00000002  00000+0  15231-4 0  9998
2 58473  43.0028 210.2984 0001472 289.3663  70.7020 15.02535446 92005
STARLINK-30995          
1 58474U 23186B   25209.03388773  .00002612  00000+0  10433-3 0  9999
2 58474  43.0022  78.0478 0000637 306.0924  53.9869 15.27604366 93535
STARLINK-30941          
1 58475U 23186C   25209.02655369  .00001364  00000+0  11597-3 0  9992
2 58475  43.0023 208.4413 0001705 287.1840  72.8816 15.02544718 91962
STARLINK-30980          
1 58476U 23186D   25208.49141016  .00000366  00000+0  42201-4 0  9990
2 58476  43.0021 211.3065 0001542 287.0163  73.0510 15.02536116 91971
STARLINK-30965          
1 58477U 23186E   25208.67667314  .00000855  00000+0  78336-4 0  9996
2 58477  43.0029 197.1055 0001279 277.3648  82.7049 15.02536733 92157
STARLINK-30990          
1 58478U 23186F   25208.68751599  .00000575  00000+0  57615-4 0  9993
2 58478  43.0016 210.1981 0001352 280.8746  79.1944 15.02536801 92046
STARLINK-30984          
1 58480U 23186H   25209.30568642  .00000981  00000+0  87716-4 0  9997
2 58480  43.0029 206.2306 0001276 280.6865  79.3834 15.02536864 92066
STARLINK-30956          
1 58481U 23186J   25208.65729575 -.00000066  00000+0  10185-4 0  9990
2 58481  43.0018 185.5495 0001154 281.3267  78.7445 15.02538277 92287
STARLINK-30997          
1 58482U 23186K   25208.72404242 -.00001280  00000+0 -79700-4 0  9998
2 58482  43.0011 209.5796 0001450 288.4823  71.5861 15.02518685 92012
STARLINK-30994          
1 58483U 23186L   25208.68693535 -.00003407  00000+0 -12036-3 0  9990
2 58483  43.0011  90.8061 0001021 287.4746  72.5994 15.25941189 93390
STARLINK-30991          
1 58484U 23186M   25208.70404594  .00000616  00000+0  60669-4 0  9992
2 58484  43.0030 209.4544 0001669 287.5081  72.5579 15.02536554 92004
STARLINK-30979          
1 58485U 23186N   25209.01324514 -.00000125  00000+0  58137-5 0  9995
2 58485  43.0020 208.3389 0001272 291.5901  68.4806 15.02536218 92009
