[{"OBJECT_NAME":"STARLINK-30935","OBJECT_ID":"2023-183U","EPOCH":"2025-07-28T09:18:01.341792","MEAN_MOTION":15.02532257,"ECCENTRICITY":0.0001179,"INCLINATION":43.0024,"RA_OF_ASC_NODE":182.0913,"ARG_OF_PERICENTER":284.287,"MEAN_ANOMALY":75.7841,"EPHEMERIS_TYPE":0,"CLASSIFICATION_TYPE":"U","NORAD_CAT_ID":58455,"ELEMENT_SET_NO":999,"REV_AT_EPOCH":9299,"BSTAR":5.3658e-5,"MEAN_MOTION_DOT":5.21e-6,"MEAN_MOTION_DDOT":0},{"OBJECT_NAME":"STARLINK-30960","OBJECT_ID":"2023-183V","EPOCH":"2025-07-27T20:24:26.688096","MEAN_MOTION":15.27574384,"ECCENTRICITY":0.0001343,"INCLINATION":43.0002,"RA_OF_ASC_NODE":150.9518,"ARG_OF_PERICENTER":279.2522,"MEAN_ANOMALY":80.8177,"EPHEMERIS_TYPE":0,"CLASSIFICATION_TYPE":"U","NORAD_CAT_ID":58456,"ELEMENT_SET_NO":999,"REV_AT_EPOCH":9329,"BSTAR":-0.0001947,"MEAN_MOTION_DOT":-5.615e-5,"MEAN_MOTION_DDOT":0},{"OBJECT_NAME":"STARLINK-30958","OBJECT_ID":"2023-183W","EPOCH":"2025-07-28T07:19:54.863040","MEAN_MOTION":15.02537776,"ECCENTRICITY":0.0001123,"INCLINATION":43.0024,"RA_OF_ASC_NODE":182.342,"ARG_OF_PERICENTER":286.2904,"MEAN_ANOMALY":73.7815,"EPHEMERIS_TYPE":0,"CLASSIFICATION_TYPE":"U","NORAD_CAT_ID":58457,"ELEMENT_SET_NO":999,"REV_AT_EPOCH":9286,"BSTAR":5.431e-5,"MEAN_MOTION_DOT":5.3e-6,"MEAN_MOTION_DDOT":0},{"OBJECT_NAME":"STARLINK-30962","OBJECT_ID":"2023-183X","EPOCH":"2025-07-28T05:09:01.640448","MEAN_MOTION":15.025343,"ECCENTRICITY":0.0001221,"INCLINATION":43.0025,"RA_OF_ASC_NODE":182.5214,"ARG_OF_PERICENTER":275.152,"MEAN_ANOMALY":84.9183,"EPHEMERIS_TYPE":0,"CLASSIFICATION_TYPE":"U","NORAD_CAT_ID":58458,"ELEMENT_SET_NO":999,"REV_AT_EPOCH":9276,"BSTAR":1.7668e-5,"MEAN_MOTION_DOT":3.5e-7,"MEAN_MOTION_DDOT":0},{"OBJECT_NAME":"STARLINK-30977","OBJECT_ID":"2023-183Y","EPOCH":"2025-07-28T07:37:29.826048","MEAN_MOTION":15.0253564,"ECCENTRICITY":9.96e-5,"INCLINATION":43.0021,"RA_OF_ASC_NODE":182.4285,"ARG_OF_PERICENTER":278.987,"MEAN_ANOMALY":81.086,"EPHEMERIS_TYPE":0,"CLASSIFICATION_TYPE":"U","NORAD_CAT_ID":58459,"ELEMENT_SET_NO":999,"REV_AT_EPOCH":9277,"BSTAR":7.7106e-5,"MEAN_MOTION_DOT":8.38e-6,"MEAN_MOTION_DDOT":0},{"OBJECT_NAME":"STARLINK-30947","OBJECT_ID":"2023-186A","EPOCH":"2025-07-27T16:49:12.077472","MEAN_MOTION":15.02535446,"ECCENTRICITY":0.0001472,"INCLINATION":43.0028,"RA_OF_ASC_NODE":210.2984,"ARG_OF_PERICENTER":289.3663,"MEAN_ANOMALY":70.702,"EPHEMERIS_TYPE":0,"CLASSIFICATION_TYPE":"U","NORAD_CAT_ID":58473,"ELEMENT_SET_NO":999,"REV_AT_EPOCH":9200,"BSTAR":1.5231e-5,"MEAN_MOTION_DOT":2.0e-8,"MEAN_MOTION_DDOT":0},{"OBJECT_NAME":"STARLINK-30995","OBJECT_ID":"2023-186B","EPOCH":"2025-07-28T00:48:47.899872","MEAN_MOTION":15.27604366,"ECCENTRICITY":6.37e-5,"INCLINATION":43.0022,"RA_OF_ASC_NODE":78.0478,"ARG_OF_PERICENTER":306.0924,"MEAN_ANOMALY":53.9869,"EPHEMERIS_TYPE":0,"CLASSIFICATION_TYPE":"U","NORAD_CAT_ID":58474,"ELEMENT_SET_NO":999,"REV_AT_EPOCH":9353,"BSTAR":0.00010433,"MEAN_MOTION_DOT":2.612e-5,"MEAN_MOTION_DDOT":0},{"OBJECT_NAME":"STARLINK-30941","OBJECT_ID":"2023-186C","EPOCH":"2025-07-28T00:38:14.238816","MEAN_MOTION":15.02544718,"ECCENTRICITY":0.0001705,"INCLINATION":43.0023,"RA_OF_ASC_NODE":208.4413,"ARG_OF_PERICENTER":287.184,"MEAN_ANOMALY":72.8816,"EPHEMERIS_TYPE":0,"CLASSIFICATION_TYPE":"U","NORAD_CAT_ID":58475,"ELEMENT_SET_NO":999,"REV_AT_EPOCH":9196,"BSTAR":0.00011597,"MEAN_MOTION_DOT":1.364e-5,"MEAN_MOTION_DDOT":0},{"OBJECT_NAME":"STARLINK-30980","OBJECT_ID":"2023-186D","EPOCH":"2025-07-27T11:47:37.837824","MEAN_MOTION":15.02536116,"ECCENTRICITY":0.0001542,"INCLINATION":43.0021,"RA_OF_ASC_NODE":211.3065,"ARG_OF_PERICENTER":287.0163,"MEAN_ANOMALY":73.051,"EPHEMERIS_TYPE":0,"CLASSIFICATION_TYPE":"U","NORAD_CAT_ID":58476,"ELEMENT_SET_NO":999,"REV_AT_EPOCH":9197,"BSTAR":4.2201e-5,"MEAN_MOTION_DOT":3.66e-6,"MEAN_MOTION_DDOT":0},{"OBJECT_NAME":"STARLINK-30965","OBJECT_ID":"2023-186E","EPOCH":"2025-07-27T16:14:24.559296","MEAN_MOTION":15.02536733,"ECCENTRICITY":0.0001279,"INCLINATION":43.0029,"RA_OF_ASC_NODE":197.1055,"ARG_OF_PERICENTER":277.3648,"MEAN_ANOMALY":82.7049,"EPHEMERIS_TYPE":0,"CLASSIFICATION_TYPE":"U","NORAD_CAT_ID":58477,"ELEMENT_SET_NO":999,"REV_AT_EPOCH":9215,"BSTAR":7.8336e-5,"MEAN_MOTION_DOT":8.55e-6,"MEAN_MOTION_DDOT":0},{"OBJECT_NAME":"STARLINK-30990","OBJECT_ID":"2023-186F","EPOCH":"2025-07-27T16:30:01.381536","MEAN_MOTION":15.02536801,"ECCENTRICITY":0.0001352,"INCLINATION":43.0016,"RA_OF_ASC_NODE":210.1981,"ARG_OF_PERICENTER":280.8746,"MEAN_ANOMALY":79.1944,"EPHEMERIS_TYPE":0,"CLASSIFICATION_TYPE":"U","NORAD_CAT_ID":58478,"ELEMENT_SET_NO":999,"REV_AT_EPOCH":9204,"BSTAR":5.7615e-5,"MEAN_MOTION_DOT":5.75e-6,"MEAN_MOTION_DDOT":0},{"OBJECT_NAME":"STARLINK-30984","OBJECT_ID":"2023-186H","EPOCH":"2025-07-28T07:20:11.306688","MEAN_MOTION":15.02536864,"ECCENTRICITY":0.0001276,"INCLINATION":43.0029,"RA_OF_ASC_NODE":206.2306,"ARG_OF_PERICENTER":280.6865,"MEAN_ANOMALY":79.3834,"EPHEMERIS_TYPE":0,"CLASSIFICATION_TYPE":"U","NORAD_CAT_ID":58480,"ELEMENT_SET_NO":999,"REV_AT_EPOCH":9206,"BSTAR":8.7716e-5,"MEAN_MOTION_DOT":9.81e-6,"MEAN_MOTION_DDOT":0},{"OBJECT_NAME":"STARLINK-30956","OBJECT_ID":"2023-186J","EPOCH":"2025-07-27T15:46:30.352800","MEAN_MOTION":15.02538277,"ECCENTRICITY":0.0001154,"INCLINATION":43.0018,"RA_OF_ASC_NODE":185.5495,"ARG_OF_PERICENTER":281.3267,"MEAN_ANOMALY":78.7445,"EPHEMERIS_TYPE":0,"CLASSIFICATION_TYPE":"U","NORAD_CAT_ID":58481,"ELEMENT_SET_NO":999,"REV_AT_EPOCH":9228,"BSTAR":1.0185e-5,"MEAN_MOTION_DOT":-6.6e-7,"MEAN_MOTION_DDOT":0},{"OBJECT_NAME":"STARLINK-30997","OBJECT_ID":"2023-186K","EPOCH":"2025-07-27T17:22:37.265088","MEAN_MOTION":15.02518685,"ECCENTRICITY":0.000145,"INCLINATION":43.0011,"RA_OF_ASC_NODE":209.5796,"ARG_OF_PERICENTER":288.4823,"MEAN_ANOMALY":71.5861,"EPHEMERIS_TYPE":0,"CLASSIFICATION_TYPE":"U","NORAD_CAT_ID":58482,"ELEMENT_SET_NO":999,"REV_AT_EPOCH":9201,"BSTAR":-7.97e-5,"MEAN_MOTION_DOT":-1.28e-5,"MEAN_MOTION_DDOT":0},{"OBJECT_NAME":"STARLINK-30994","OBJECT_ID":"2023-186L","EPOCH":"2025-07-27T16:29:11.214240","MEAN_MOTION":15.25941189,"ECCENTRICITY":0.0001021,"INCLINATION":43.0011,"RA_OF_ASC_NODE":90.8061,"ARG_OF_PERICENTER":287.4746,"MEAN_ANOMALY":72.5994,"EPHEMERIS_TYPE":0,"CLASSIFICATION_TYPE":"U","NORAD_CAT_ID":58483,"ELEMENT_SET_NO":999,"REV_AT_EPOCH":9339,"BSTAR":-0.00012036,"MEAN_MOTION_DOT":-3.407e-5,"MEAN_MOTION_DDOT":0},{"OBJECT_NAME":"STARLINK-30991","OBJECT_ID":"2023-186M","EPOCH":"2025-07-27T16:53:49.569216","MEAN_MOTION":15.02536554,"ECCENTRICITY":0.0001669,"INCLINATION":43.003,"RA_OF_ASC_NODE":209.4544,"ARG_OF_PERICENTER":287.5081,"MEAN_ANOMALY":72.5579,"EPHEMERIS_TYPE":0,"CLASSIFICATION_TYPE":"U","NORAD_CAT_ID":58484,"ELEMENT_SET_NO":999,"REV_AT_EPOCH":9200,"BSTAR":6.0669e-5,"MEAN_MOTION_DOT":6.16e-6,"MEAN_MOTION_DDOT":0},{"OBJECT_NAME":"STARLINK-30979","OBJECT_ID":"2023-186N","EPOCH":"2025-07-28T00:19:04.380096","MEAN_MOTION":15.02536218,"ECCENTRICITY":0.0001272,"INCLINATION":43.002,"RA_OF_ASC_NODE":208.3389,"ARG_OF_PERICENTER":291.5901,"MEAN_ANOMALY":68.4806,"EPHEMERIS_TYPE":0,"CLASSIFICATION_TYPE":"U","NORAD_CAT_ID":58485,"ELEMENT_SET_NO":999,"REV_AT_EPOCH":9200,"BSTAR":5.8137e-6,"MEAN_MOTION_DOT":-1.25e-6,"MEAN_MOTION_DDOT":0}]
